[{"OBJECT_NAME":"STARLINK-33791","OBJECT_ID":"2025-076AB","EPOCH":"2026-03-09T09:34:36.408864","MEAN_MOTION":15.27573239,"ECCENTRICITY":5.353e-5,"INCLINATION":42.9965,"RA_OF_ASC_NODE":323.5303,"ARG_OF_PERICENTER":14.5372,"MEAN_ANOMALY":345.5495,"EPHEMERIS_TYPE":0,"CLASSIFICATION_TYPE":"U","NORAD_CAT_ID":63594,"ELEMENT_SET_NO":999,"REV_AT_EPOCH":5178,"BSTAR":0.0013368619,"MEAN_MOTION_DOT":0.00036701,"MEAN_MOTION_DDOT":0},{"OBJECT_NAME":"ELECTRON KICK STAGE R\/B","OBJECT_ID":"2022-147B","EPOCH":"2026-03-09T22:28:20.187264","MEAN_MOTION":15.28920172,"ECCENTRICITY":0.00095089,"INCLINATION":97.642,"RA_OF_ASC_NODE":85.1135,"ARG_OF_PERICENTER":110.4683,"MEAN_ANOMALY":249.7578,"EPHEMERIS_TYPE":0,"CLASSIFICATION_TYPE":"U","NORAD_CAT_ID":54228,"ELEMENT_SET_NO":999,"REV_AT_EPOCH":18390,"BSTAR":0.00083201931,"MEAN_MOTION_DOT":0.00023374,"MEAN_MOTION_DDOT":0}]
